STARLINK-2472           
1 48130U 21027AQ  26068.59623917  .00000164  00000+0  17668-4 0  9994
2 48130  53.1621 168.6315 0001727  59.3925 300.7246 15.30197129272467
TOMORROW-S1             
1 60479U 24149M   26068.72470524  .00008620  00000+0  28856-3 0  9996
2 60479  97.3791 149.6044 0001819 207.2040 152.9106 15.31198362 86867
